OBJECT_NAME,OBJECT_ID,EPOCH,MEAN_MOTION,ECCENTRICITY,INCLINATION,RA_OF_ASC_NODE,ARG_OF_PERICENTER,MEAN_ANOMALY,EPHEMERIS_TYPE,CLASSIFICATION_TYPE,NORAD_CAT_ID,ELEMENT_SET_NO,REV_AT_EPOCH,BSTAR,MEAN_MOTION_DOT,MEAN_MOTION_DDOT
STARLINK-37376,2026-123AB,2026-06-16T14:00:01.000224,15.80895757,.00010562,53.1585,244.1966,42.3541,152.1009,0,U,69378,999,319,-.20599399E-3,-.41204E-3,0
STARLINK-37383,2026-123AC,2026-06-16T14:00:01.000224,15.80914965,.00012643,53.1578,244.1239,72.7634,156.3518,0,U,69379,999,319,-.35262032E-3,-.6987E-3,0
STARLINK-37411,2026-123AD,2026-06-16T14:00:01.000224,15.80886241,.00010645,53.1580,244.1821,64.3968,136.8929,0,U,69380,999,319,-.15171284E-3,-.30554E-3,0
STARLINK-37427,2026-123AE,2026-06-16T14:00:01.000224,15.80841764,.00011648,53.1579,244.1333,71.3684,153.3025,0,U,69381,999,310,.22299784E-3,.43472E-3,0
QIANFAN-165,2026-124A,2026-06-16T01:20:06.786240,14.13769567,.00017721,88.9976,2.1675,169.7746,190.3477,0,U,69382,999,165,-.1208859E+1,-.2109876E-1,0
QIANFAN-166,2026-124B,2026-06-15T23:33:17.629056,14.14903562,.00038011,88.9976,2.1775,207.7737,152.3248,0,U,69383,999,164,-.11770023E+1,-.2098646E-1,0
QIANFAN-167,2026-124C,2026-06-15T13:23:59.310240,14.14488199,.00049829,88.9981,2.2257,164.0190,196.1155,0,U,69384,999,158,-.11683555E+1,-.2069702E-1,0
QIANFAN-168,2026-124D,2026-06-15T21:47:02.744160,14.15868227,.00068375,88.9980,2.1835,191.6708,168.4322,0,U,69385,999,163,-.11293932E+1,-.20538E-1,0
QIANFAN-169,2026-124E,2026-06-15T13:16:16.433472,14.16502879,.00068162,88.9976,2.2227,203.5127,156.5751,0,U,69386,999,158,-.10519428E+1,-.1943706E-1,0
QIANFAN-170,2026-124F,2026-06-16T06:09:44.332704,14.20039676,.0002493,88.9982,2.1437,117.6653,242.4790,0,U,69387,999,168,.27688E-4,.73E-6,0
QIANFAN-171,2026-124G,2026-06-16T01:02:08.478816,14.18861707,.00063752,88.9966,2.1655,199.8711,160.2231,0,U,69388,999,165,-.10881796E+1,-.2089238E-1,0
QIANFAN-172,2026-124H,2026-06-16T02:45:03.818592,14.21599532,.0001843,88.9982,2.1583,154.5437,205.5845,0,U,69389,999,166,.2812815E-4,.76E-6,0
QIANFAN-173,2026-124J,2026-06-16T06:05:02.532192,14.22005855,.0002348,88.9980,2.1431,149.1373,210.9956,0,U,69390,999,168,.28086E-4,.77E-6,0
QIANFAN-174,2026-124K,2026-06-15T21:34:15.545856,14.19450718,.00067587,88.9971,2.1820,176.7023,183.4213,0,U,69391,999,163,-.10344745E+1,-.2013987E-1,0
QIANFAN-175,2026-124L,2026-06-16T00:57:19.453536,14.19503775,.00050088,88.9968,2.1659,194.8620,165.2424,0,U,69392,999,165,-.10614083E+1,-.206427E-1,0
QIANFAN-176,2026-124M,2026-06-15T13:07:40.399968,14.21621112,.00027159,88.9975,2.2218,318.0752,42.0231,0,U,69393,999,158,-.10494153E+1,-.2119033E-1,0
QIANFAN-177,2026-124N,2026-06-16T11:00:06.487488,14.25688204,.00032069,88.9983,2.1168,154.0010,206.1345,0,U,69394,999,171,.29688568E-4,.85E-6,0
QIANFAN-178,2026-124P,2026-06-16T00:55:19.672896,14.21206064,.00046551,88.9982,2.1647,134.9628,225.1940,0,U,69395,999,165,-.1060211E+1,-.2123926E-1,0
QIANFAN-179,2026-124Q,2026-06-16T02:34:08.484096,14.25729216,.00027961,88.9985,2.1568,164.7985,195.3293,0,U,69396,999,166,.30048488E-4,.86E-6,0
QIANFAN-180,2026-124R,2026-06-16T00:51:02.108448,14.20905502,.00019411,88.9975,2.1650,142.0176,218.1152,0,U,69397,999,165,-.92529732E+0,-.1861776E-1,0
QIANFAN-181,2026-124S,2026-06-16T01:17:03.255360,14.13695464,.00040015,88.9984,2.1680,157.4366,202.6997,0,U,69398,999,165,-.11375532E+1,-.1991703E-1,0
QIANFAN-182,2026-124T,2026-06-15T21:43:14.206656,14.16797096,.0007477,88.9977,2.1837,198.2087,161.8835,0,U,69399,999,163,-.10948519E+1,-.2027679E-1,0
DTC TEST OBJECT A,2026-128A,2026-06-16T15:42:02.398752,15.55812570,.00084233,54.9947,307.4913,287.1727,72.8387,0,U,69472,999,114,.31548753E-3,.21759E-3,0
DTC TEST OBJECT B,2026-128B,2026-06-16T15:39:53.055360,15.56261923,.00084864,55.0035,307.4874,288.1667,71.8445,0,U,69473,999,113,.40107221E-3,.28289E-3,0
TJS-25,2026-129A,2026-06-11T11:34:53.014656,1.72502163,.7751889,16.5302,30.5351,199.9639,91.9387,0,U,69474,999,7,.19774E-2,.7407E-4,0
2026-132A,2026-132A,2026-06-16T10:06:02.778336,14.99044127,.00124163,97.6911,231.1067,273.8108,86.1695,0,U,69502,999,66,.47939119E-4,.523E-5,0
2026-132B,2026-132B,2026-06-16T10:05:39.836544,14.99134469,.00123281,97.6942,231.1089,276.0591,83.9227,0,U,69503,999,66,.29060257E-4,.294E-5,0
BRO-22,2026-132C,2026-06-16T03:38:45.122496,14.99757954,.00138076,97.6882,230.8421,288.8226,71.1499,0,U,69504,999,62,.75318939E-4,.872E-5,0
2026-132D,2026-132D,2026-06-16T03:33:11.183904,15.01725287,.00117095,97.6817,230.8394,297.0190,62.9838,0,U,69505,999,62,.11328567E-3,.1415E-4,0
